$$SOE
2459580.500000000, A.D. 2022-Jan-01 00:00:00.0000, 2.171846190467531E+08, 2.280174022152961E+08, 2.444767772319570E+06,
2459587.500000000, A.D. 2022-Jan-08 00:00:00.0000, 2.084968811858782E+08, 2.382448373036675E+08, 5.441655206144899E+05,
2459594.500000000, A.D. 2022-Jan-15 00:00:00.0000, 1.994901922757060E+08, 2.481078557986895E+08, -1.357277569226012E+06,
2459601.500000000, A.D. 2022-Jan-22 00:00:00.0000, 1.901833874607991E+08, 2.575976635976441E+08, -3.256687830075756E+06,
2459608.500000000, A.D. 2022-Jan-29 00:00:00.0000, 1.805953939998440E+08, 2.667066619571705E+08, -5.151292688374832E+06,
2459615.500000000, A.D. 2022-Feb-05 00:00:00.0000, 1.707451420581381E+08, 2.754284136142190E+08, -7.038426908343807E+06,
2459622.500000000, A.D. 2022-Feb-12 00:00:00.0000, 1.606514842456025E+08, 2.837576016569850E+08, -8.915537828426644E+06,
2459629.500000000, A.D. 2022-Feb-19 00:00:00.0000, 1.503331228889045E+08, 2.916899845423217E+08, -1.078018933810276E+07,
2459636.500000000, A.D. 2022-Feb-26 00:00:00.0000, 1.398085438876751E+08, 2.992223475363792E+08, -1.263006460896406E+07,
2459643.500000000, A.D. 2022-Mar-05 00:00:00.0000, 1.290959573472737E+08, 3.063524509163194E+08, -1.446296773005792E+07,
2459650.500000000, A.D. 2022-Mar-12 00:00:00.0000, 1.182132451299863E+08, 3.130789757596062E+08, -1.627682436512893E+07,
2459657.500000000, A.D. 2022-Mar-19 00:00:00.0000, 1.071779152186509E+08, 3.194014681681882E+08, -1.806968153183840E+07,
2459664.500000000, A.D. 2022-Mar-26 00:00:00.0000, 9.600706265787652E+07, 3.253202826616104E+08, -1.983970660270417E+07,
2459671.500000000, A.D. 2022-Apr-02 00:00:00.0000, 8.471733681970336E+07, 3.308365253406297E+08, -2.158518563492684E+07,
2459678.500000000, A.D. 2022-Apr-09 00:00:00.0000, 7.332491489642812E+07, 3.359519974008231E+08, -2.330452114748816E+07,
2459685.500000000, A.D. 2022-Apr-16 00:00:00.0000, 6.184548157499386E+07, 3.406691401451105E+08, -2.499622941509067E+07,
2459692.500000000, A.D. 2022-Apr-23 00:00:00.0000, 5.029421320351862E+07, 3.449909829948408E+08, -2.665893715976813E+07,
2459699.500000000, A.D. 2022-Apr-30 00:00:00.0000, 3.868576414692109E+07, 3.489210925852804E+08, -2.829137773023933E+07,
2459706.500000000, A.D. 2022-May-07 00:00:00.0000, 2.703425795166777E+07, 3.524635212403994E+08, -2.989238728225379E+07,
2459713.500000000, A.D. 2022-May-14 00:00:00.0000, 1.535328428105551E+07, 3.556227580826421E+08, -3.146090090681829E+07,
2459720.500000000, A.D. 2022-May-21 00:00:00.0000, 3.655899178684111E+06, 3.584036836875711E+08, -3.299594851819816E+07,
2459727.500000000, A.D. 2022-May-28 00:00:00.0000, -8.045372216948079E+06, 3.608115274228463E+08, -3.449665058840221E+07,
2459734.500000000, A.D. 2022-Jun-04 00:00:00.0000, -1.973853060723718E+07, 3.628518272161891E+08, -3.596221382532187E+07,
2459741.500000000, A.D. 2022-Jun-11 00:00:00.0000, -3.141209532614904E+07, 3.645303917754924E+08, -3.739192684795986E+07,
2459748.500000000, A.D. 2022-Jun-18 00:00:00.0000, -4.305509527963312E+07, 3.658532652636938E+08, -3.878515589585818E+07,
2459755.500000000, A.D. 2022-Jun-25 00:00:00.0000, -5.465705830372649E+07, 3.668266943581299E+08, -4.014134060743372E+07,
2459762.500000000, A.D. 2022-Jul-02 00:00:00.0000, -6.620799908256514E+07, 3.674570975699483E+08, -4.145998990925831E+07,
2459769.500000000, A.D. 2022-Jul-09 00:00:00.0000, -7.769840548589958E+07, 3.677510369249501E+08, -4.274067805758153E+07,
2459776.500000000, A.D. 2022-Jul-16 00:00:00.0000, -8.911922360670680E+07, 3.677151930014924E+08, -4.398304075502644E+07,
2459783.500000000, A.D. 2022-Jul-23 00:00:00.0000, -1.004618438965015E+08, 3.673563433076484E+08, -4.518677114801934E+07,
2459790.500000000, A.D. 2022-Jul-30 00:00:00.0000, -1.117180884880878E+08, 3.666813405351399E+08, -4.635161599541077E+07,
2459797.500000000, A.D. 2022-Aug-06 00:00:00.0000, -1.228801962656838E+08, 3.656970912245551E+08, -4.747737229084000E+07,
2459804.500000000, A.D. 2022-Aug-13 00:00:00.0000, -1.339408066438033E+08, 3.644105374894574E+08, -4.856388404408868E+07,
2459811.500000000, A.D. 2022-Aug-20 00:00:00.0000, -1.448929437378917E+08, 3.628286411849951E+08, -4.961103912134945E+07,
2459818.500000000, A.D. 2022-Aug-27 00:00:00.0000, -1.557300009562242E+08, 3.609583696787124E+08, -5.061876620908728E+07,
2459825.500000000, A.D. 2022-Sep-03 00:00:00.0000, -1.664457258505066E+08, 3.588066829984308E+08, -5.158703193048042E+07,
2459832.500000000, A.D. 2022-Sep-10 00:00:00.0000, -1.770342052097822E+08, 3.563805222708539E+08, -5.251583811730848E+07,
2459839.500000000, A.D. 2022-Sep-17 00:00:00.0000, -1.874898504326555E+08, 3.536867993458343E+08, -5.340521923702483E+07,
2459846.500000000, A.D. 2022-Sep-24 00:00:00.0000, -1.978073831704019E+08, 3.507323874595392E+08, -5.425523998207189E+07,
2459853.500000000, A.D. 2022-Oct-01 00:00:00.0000, -2.079818210420874E+08, 3.475241128239195E+08, -5.506599304236998E+07,
2459860.500000000, A.D. 2022-Oct-08 00:00:00.0000, -2.180084630453614E+08, 3.440687475778865E+08, -5.583759705186054E+07,
2459867.500000000, A.D. 2022-Oct-15 00:00:00.0000, -2.278828756185157E+08, 3.403730052168897E+08, -5.657019452127399E+07,
2459874.500000000, A.D. 2022-Oct-22 00:00:00.0000, -2.376008815517751E+08, 3.364435367399173E+08, -5.726394969001451E+07,
2459881.500000000, A.D. 2022-Oct-29 00:00:00.0000, -2.471585492580213E+08, 3.322869248443437E+08, -5.791904673172680E+07,
2459888.500000000, A.D. 2022-Nov-05 00:00:00.0000, -2.565521803109970E+08, 3.279096788361355E+08, -5.853568827524975E+07,
2459895.500000000, A.D. 2022-Nov-12 00:00:00.0000, -2.657782972219649E+08, 3.233182314592585E+08, -5.911409395250227E+07,
2459902.500000000, A.D. 2022-Nov-19 00:00:00.0000, -2.748336321736825E+08, 3.185189366321910E+08, -5.965449898039071E+07,
2459909.500000000, A.D. 2022-Nov-26 00:00:00.0000, -2.837151164452899E+08, 3.135180676385859E+08, -6.015715282761674E+07,
2459916.500000000, A.D. 2022-Dec-03 00:00:00.0000, -2.924198703562037E+08, 3.083218157089146E+08, -6.062231797704376E+07,
2459923.500000000, A.D. 2022-Dec-10 00:00:00.0000, -3.009451936759000E+08, 3.029362889645271E+08, -6.105026878103972E+07,
2459930.500000000, A.D. 2022-Dec-17 00:00:00.0000, -3.092885564656495E+08, 2.973675116558699E+08, -6.144129040908121E+07,
2459937.500000000, A.D. 2022-Dec-24 00:00:00.0000, -3.174475902322238E+08, 2.916214235893674E+08, -6.179567789816739E+07,
2459944.500000000, A.D. 2022-Dec-31 00:00:00.0000, -3.254200790242558E+08, 2.857038798140454E+08, -6.211373532533654E+07,
2459951.500000000, A.D. 2023-Jan-07 00:00:00.0000, -3.332039503363739E+08, 2.796206514968284E+08, -6.239577503040043E+07,
2459958.500000000, A.D. 2023-Jan-14 00:00:00.0000, -3.407972677764319E+08, 2.733774284535099E+08, -6.264211666402199E+07,
2459965.500000000, A.D. 2023-Jan-21 00:00:00.0000, -3.481982261276756E+08, 2.669798201372608E+08, -6.285308625780696E+07,
2459972.500000000, A.D. 2023-Jan-28 00:00:00.0000, -3.554051451213725E+08, 2.604333548641704E+08, -6.302901566416799E+07,
2459979.500000000, A.D. 2023-Feb-04 00:00:00.0000, -3.624164621136721E+08, 2.537434802783197E+08, -6.317024209479185E+07,
2459986.500000000, A.D. 2023-Feb-11 00:00:00.0000, -3.692307254497215E+08, 2.469155648421585E+08, -6.327710760574535E+07,
2459993.500000000, A.D. 2023-Feb-18 00:00:00.0000, -3.758465885645426E+08, 2.399548995112713E+08, -6.334995858751219E+07,
2460000.500000000, A.D. 2023-Feb-25 00:00:00.0000, -3.822628045434692E+08, 2.328666994144981E+08, -6.338914529372969E+07,
2460007.500000000, A.D. 2023-Mar-04 00:00:00.0000, -3.884782210264817E+08, 2.256561055420362E+08, -6.339502141315341E+07,
2460014.500000000, A.D. 2023-Mar-11 00:00:00.0000, -3.944917754154674E+08, 2.183281864276108E+08, -6.336794368457419E+07,
2460021.500000000, A.D. 2023-Mar-18 00:00:00.0000, -4.003024903258015E+08, 2.108879397627427E+08, -6.330827156058864E+07,
2460028.500000000, A.D. 2023-Mar-25 00:00:00.0000, -4.059094690678275E+08, 2.033402938851930E+08, -6.321636694052608E+07,
2460035.500000000, A.D. 2023-Apr-01 00:00:00.0000, -4.113118907227520E+08, 1.956901095256508E+08, -6.309259397723992E+07,
2460042.500000000, A.D. 2023-Apr-08 00:00:00.0000, -4.165090054178388E+08, 1.879421830292699E+08, -6.293731879928765E+07,
2460049.500000000, A.D. 2023-Apr-15 00:00:00.0000, -4.215001321286879E+08, 1.801012499390362E+08, -6.275090902311028E+07,
2460056.500000000, A.D. 2023-Apr-22 00:00:00.0000, -4.262846571896592E+08, 1.721719858844383E+08, -6.253373346916754E+07,
2460063.500000000, A.D. 2023-Apr-29 00:00:00.0000, -4.308620307646440E+08, 1.641590070232231E+08, -6.228616214627959E+07,
2460070.500000000, A.D. 2023-May-06 00:00:00.0000, -4.352317630265815E+08, 1.560668718105499E+08, -6.200856619466967E+07,
2460077.500000000, A.D. 2023-May-13 00:00:00.0000, -4.393934210131543E+08, 1.479000831962201E+08, -6.170131776953397E+07,
2460084.500000000, A.D. 2023-May-20 00:00:00.0000, -4.433466259155573E+08, 1.396630907539713E+08, -6.136478992531717E+07,
2460091.500000000, A.D. 2023-May-27 00:00:00.0000, -4.470910505987530E+08, 1.313602927084249E+08, -6.099935651965529E+07,
2460098.500000000, A.D. 2023-Jun-03 00:00:00.0000, -4.506264172891694E+08, 1.229960378814761E+08, -6.060539213955063E+07,
2460105.500000000, A.D. 2023-Jun-10 00:00:00.0000, -4.539524954005627E+08, 1.145746275416677E+08, -6.018327205290353E+07,
2460112.500000000, A.D. 2023-Jun-17 00:00:00.0000, -4.570690994034430E+08, 1.061003170949586E+08, -5.973337219828082E+07,
2460119.500000000, A.D. 2023-Jun-24 00:00:00.0000, -4.599760864119664E+08, 9.757731767149487E+07, -5.925606923726161E+07,
2460126.500000000, A.D. 2023-Jul-01 00:00:00.0000, -4.626733532286155E+08, 8.900979843529847E+07, -5.875174062416485E+07,
2460133.500000000, A.D. 2023-Jul-08 00:00:00.0000, -4.651608345145689E+08, 8.040189043727317E+07, -5.822076447170231E+07,
2460140.500000000, A.D. 2023-Jul-15 00:00:00.0000, -4.674385033580902E+08, 7.175768918039434E+07, -5.766351932636794E+07,
2460147.500000000, A.D. 2023-Jul-22 00:00:00.0000, -4.695063707150742E+08, 6.308125486277652E+07, -5.708038426064639E+07,
$$EOE